ONEWEB-0120             
1 47266U 20100J   25059.49123336 -.00000410  00000+0 -11740-2 0  9991
2 47266  87.8804  84.9713 0001881  88.6176 271.5168 13.12442394202599
ONEWEB-0121             
1 47267U 20100K   25059.47976083 -.00000300  00000+0 -87054-3 0  9995
2 47267  87.8800  84.9509 0002035  94.2645 265.8716 13.12442790202501
ONEWEB-0122             
1 47268U 20100L   25059.47474732 -.00000288  00000+0 -83628-3 0  9998
2 47268  87.8803  84.9575 0002070  90.5465 269.5901 13.12444760202412
ONEWEB-0123             
1 47269U 20100M   25059.77497711 -.00000256  00000+0 -74570-3 0  9995
2 47269  87.8806  84.9203 0001830  92.2014 267.9324 13.12441644202594
ONEWEB-0124             
1 47270U 20100N   25059.76363149  .00000169  00000+0  43384-3 0  9993
2 47270  87.8806  84.9201 0001982  99.5444 260.5908 13.12441505202479
ONEWEB-0125             
1 47271U 20100P   25059.51220688  .00000473  00000+0  12801-2 0  9994
2 47271  87.8804  84.9319 0001674 100.4502 259.6815 13.12443414202504
ONEWEB-0126             
1 47272U 20100Q   25059.76606403  .00000017  00000+0  12483-4 0  9997
2 47272  87.8804  84.8777 0001888  88.5889 271.5455 13.12442141202603
ONEWEB-0127             
1 47273U 20100R   25059.49923276  .00000154  00000+0  39154-3 0  9993
2 47273  87.8805  84.9678 0001949  89.0310 271.1042 13.12442459202597
